[{"OBJECT_NAME":"STARLINK-31741","OBJECT_ID":"2024-074S","EPOCH":"2026-03-09T03:19:28.512480","MEAN_MOTION":15.27586163,"ECCENTRICITY":0.00017149,"INCLINATION":43.0023,"RA_OF_ASC_NODE":346.3262,"ARG_OF_PERICENTER":275.1195,"MEAN_ANOMALY":84.9461,"EPHEMERIS_TYPE":0,"CLASSIFICATION_TYPE":"U","NORAD_CAT_ID":59550,"ELEMENT_SET_NO":999,"REV_AT_EPOCH":10593,"BSTAR":0.00012593429,"MEAN_MOTION_DOT":3.205e-5,"MEAN_MOTION_DDOT":0},{"OBJECT_NAME":"CZ-2C DEB","OBJECT_ID":"2018-056F","EPOCH":"2026-03-09T10:57:26.102304","MEAN_MOTION":15.27739248,"ECCENTRICITY":0.00119172,"INCLINATION":98.1188,"RA_OF_ASC_NODE":250.032,"ARG_OF_PERICENTER":4.6998,"MEAN_ANOMALY":355.4349,"EPHEMERIS_TYPE":0,"CLASSIFICATION_TYPE":"U","NORAD_CAT_ID":43534,"ELEMENT_SET_NO":999,"REV_AT_EPOCH":41855,"BSTAR":0.00085537155,"MEAN_MOTION_DOT":0.00023193,"MEAN_MOTION_DDOT":0}]
